CAPELLA-11 (ACADIA-1)   
1 57693U 23126A   26192.95697390  .00002295  00000+0  29447-3 0  9998
2 57693  53.0124  77.3551 0002531 139.8162 220.3005 14.84836023155806
CAPELLA-14 (ACADIA-4)   
1 59444U 24066C   26194.24823292  .00006954  00000+0  45541-3 0  9993
2 59444  45.6044 118.0658 0000749  18.4375 341.6537 15.08425491116420
CAPELLA-15 (ACADIA-5)   
1 60544U 24149CE  26193.26428250  .00001941  00000+0  19497-3 0  9996
2 60544  97.6768 265.5399 0003805 352.3525   7.7636 14.92404893103595
CAPELLA-17 (ACADIA-7)   
1 64583U 25135BH  26193.89874377  .00003346  00000+0  33891-3 0  9998
2 64583  97.7705 307.1410 0004023 259.8840 100.1925 14.91606996 57689
CAPELLA-16 (ACADIA-6)   
1 65318U 25188D   26193.81009470  .00003896  00000+0  37038-3 0  9996
2 65318  97.7379 268.5776 0005571 142.7555 217.4053 14.94033285 47748
CAPELLA-19 (ACADIA-9)   
1 67384U 26004X   26194.44861841  .00002547  00000+0  29288-3 0  9997
2 67384  97.8004 192.3476 0001574  93.8443 266.2953 14.86652636 27175
CAPELLA-18 (ACADIA-8)   
1 67385U 26004Y   26193.92021175  .00000653  00000+0  79554-4 0  9996
2 67385  97.8017 191.9823 0001390  99.5822 260.5551 14.86638961 27100
CAPELLA-20 (ACADIA-10)  
1 68485U 26067BX  26194.45445271  .00002961  00000+0  30001-3 0  9990
2 68485  97.7585 152.3315 0000874 145.1685 214.9591 14.91673702 15640
