{"fetched_at":"2026-07-13T18:16:46.480Z","source":"https://celestrak.org/NORAD/elements/gp.php?NAME=CAPELLA&FORMAT=JSON","constellation":"capella","records":[{"OBJECT_NAME":"CAPELLA-11 (ACADIA-1)","OBJECT_ID":"2023-126A","EPOCH":"2026-07-11T22:58:02.544960","CLASSIFICATION_TYPE":"U","MEAN_MOTION":14.84836023,"ECCENTRICITY":0.0002531,"INCLINATION":53.0124,"RA_OF_ASC_NODE":77.3551,"ARG_OF_PERICENTER":139.8162,"MEAN_ANOMALY":220.3005,"EPHEMERIS_TYPE":0,"NORAD_CAT_ID":57693,"ELEMENT_SET_NO":999,"REV_AT_EPOCH":15580,"BSTAR":0.00029447,"MEAN_MOTION_DOT":0.00002295,"MEAN_MOTION_DDOT":0},{"OBJECT_NAME":"CAPELLA-14 (ACADIA-4)","OBJECT_ID":"2024-066C","EPOCH":"2026-07-13T05:57:27.324288","CLASSIFICATION_TYPE":"U","MEAN_MOTION":15.08425491,"ECCENTRICITY":0.00007488,"INCLINATION":45.6044,"RA_OF_ASC_NODE":118.0658,"ARG_OF_PERICENTER":18.4375,"MEAN_ANOMALY":341.6537,"EPHEMERIS_TYPE":0,"NORAD_CAT_ID":59444,"ELEMENT_SET_NO":999,"REV_AT_EPOCH":11642,"BSTAR":0.00045541323,"MEAN_MOTION_DOT":0.00006954,"MEAN_MOTION_DDOT":0},{"OBJECT_NAME":"CAPELLA-15 (ACADIA-5)","OBJECT_ID":"2024-149CE","EPOCH":"2026-07-12T06:20:34.008000","CLASSIFICATION_TYPE":"U","MEAN_MOTION":14.92404893,"ECCENTRICITY":0.00038053,"INCLINATION":97.6768,"RA_OF_ASC_NODE":265.5399,"ARG_OF_PERICENTER":352.3525,"MEAN_ANOMALY":7.7636,"EPHEMERIS_TYPE":0,"NORAD_CAT_ID":60544,"ELEMENT_SET_NO":999,"REV_AT_EPOCH":10359,"BSTAR":0.00019496627,"MEAN_MOTION_DOT":0.00001941,"MEAN_MOTION_DDOT":0},{"OBJECT_NAME":"CAPELLA-17 (ACADIA-7)","OBJECT_ID":"2025-135BH","EPOCH":"2026-07-12T21:34:11.461728","CLASSIFICATION_TYPE":"U","MEAN_MOTION":14.91606996,"ECCENTRICITY":0.00040236,"INCLINATION":97.7705,"RA_OF_ASC_NODE":307.141,"ARG_OF_PERICENTER":259.884,"MEAN_ANOMALY":100.1925,"EPHEMERIS_TYPE":0,"NORAD_CAT_ID":64583,"ELEMENT_SET_NO":999,"REV_AT_EPOCH":5768,"BSTAR":0.00033890782,"MEAN_MOTION_DOT":0.00003346,"MEAN_MOTION_DDOT":0},{"OBJECT_NAME":"CAPELLA-16 (ACADIA-6)","OBJECT_ID":"2025-188D","EPOCH":"2026-07-12T19:26:32.182080","CLASSIFICATION_TYPE":"U","MEAN_MOTION":14.94033285,"ECCENTRICITY":0.0005571,"INCLINATION":97.7379,"RA_OF_ASC_NODE":268.5776,"ARG_OF_PERICENTER":142.7555,"MEAN_ANOMALY":217.4053,"EPHEMERIS_TYPE":0,"NORAD_CAT_ID":65318,"ELEMENT_SET_NO":999,"REV_AT_EPOCH":4774,"BSTAR":0.00037038221,"MEAN_MOTION_DOT":0.00003896,"MEAN_MOTION_DDOT":0},{"OBJECT_NAME":"CAPELLA-19 (ACADIA-9)","OBJECT_ID":"2026-004X","EPOCH":"2026-07-13T10:46:00.630624","CLASSIFICATION_TYPE":"U","MEAN_MOTION":14.86652636,"ECCENTRICITY":0.0001574,"INCLINATION":97.8004,"RA_OF_ASC_NODE":192.3476,"ARG_OF_PERICENTER":93.8443,"MEAN_ANOMALY":266.2953,"EPHEMERIS_TYPE":0,"NORAD_CAT_ID":67384,"ELEMENT_SET_NO":999,"REV_AT_EPOCH":2717,"BSTAR":0.00029288,"MEAN_MOTION_DOT":0.00002547,"MEAN_MOTION_DDOT":0},{"OBJECT_NAME":"CAPELLA-18 (ACADIA-8)","OBJECT_ID":"2026-004Y","EPOCH":"2026-07-12T22:05:06.295200","CLASSIFICATION_TYPE":"U","MEAN_MOTION":14.86638961,"ECCENTRICITY":0.000139,"INCLINATION":97.8017,"RA_OF_ASC_NODE":191.9823,"ARG_OF_PERICENTER":99.5822,"MEAN_ANOMALY":260.5551,"EPHEMERIS_TYPE":0,"NORAD_CAT_ID":67385,"ELEMENT_SET_NO":999,"REV_AT_EPOCH":2710,"BSTAR":0.000079554,"MEAN_MOTION_DOT":0.00000653,"MEAN_MOTION_DDOT":0},{"OBJECT_NAME":"CAPELLA-20 (ACADIA-10)","OBJECT_ID":"2026-067BX","EPOCH":"2026-07-13T10:54:24.714144","CLASSIFICATION_TYPE":"U","MEAN_MOTION":14.91673702,"ECCENTRICITY":0.0000874,"INCLINATION":97.7585,"RA_OF_ASC_NODE":152.3315,"ARG_OF_PERICENTER":145.1685,"MEAN_ANOMALY":214.9591,"EPHEMERIS_TYPE":0,"NORAD_CAT_ID":68485,"ELEMENT_SET_NO":999,"REV_AT_EPOCH":1564,"BSTAR":0.00030001,"MEAN_MOTION_DOT":0.00002961,"MEAN_MOTION_DDOT":0}]}
